NORAD_CAT_ID,OBJECT_NAME,OBJECT_TYPE,EPOCH,MEAN_MOTION,ECCENTRICITY,INCLINATION,RA_OF_ASC_NODE,ARG_OF_PERICENTER,MEAN_ANOMALY,BSTAR,MEAN_MOTION_DOT,MEAN_MOTION_DDOT,TLE_LINE0,TLE_LINE1,TLE_LINE2,SEMIMAJOR_AXIS,PERIOD,APOGEE,PERIGEE,DECAYED
55924.0,STARLINK-5849,PAYLOAD,2023-08-28 22:00:00,14.96716837,0.000311,70.0003,93.7288,272.0926,141.5718,-0.0005399,-6.266e-05,0.0,0 STARLINK-5849,1 55924U 23037L   23240.91667824 -.00006266  00000-0 -53990-3 0  9995,2 55924  70.0003  93.7288 0003110 272.0926 141.5718 14.96716837 25946,6955.186,96.211,579.214,574.888,0.0
55924.0,STARLINK-5849,PAYLOAD,2023-08-29 22:00:00,14.96712159,0.000312,69.9999,91.2133,272.2764,128.027,0.00020246,2.226e-05,0.0,0 STARLINK-5849,1 55924U 23037L   23241.91667824  .00002226  00000-0  20246-3 0  9994,2 55924  69.9999  91.2133 0003120 272.2764 128.0270 14.96712159  5687,6955.2,96.211,579.235,574.895,0.0
55924.0,STARLINK-5849,PAYLOAD,2023-08-30 06:00:00,14.96730013,0.0003119,69.9995,90.3747,270.8958,124.9513,-0.003786,-0.00043175,0.0,0 STARLINK-5849,1 55924U 23037L   23242.25001157 -.00043175  00000-0 -37860-2 0  9992,2 55924  69.9995  90.3747 0003119 270.8958 124.9513 14.96730013 26149,6955.145,96.21,579.179,574.841,0.0
55924.0,STARLINK-5849,PAYLOAD,2023-08-30 22:00:00,14.96714552,0.0003153,69.9996,88.6976,272.1534,114.7962,0.00035832,4.012e-05,0.0,0 STARLINK-5849,1 55924U 23037L   23242.91667824  .00004012  00000-0  35832-3 0  9997,2 55924  69.9996  88.6976 0003153 272.1534 114.7962 14.96714552 26243,6955.193,96.211,579.251,574.865,0.0
55924.0,STARLINK-5849,PAYLOAD,2023-08-31 18:43:55,14.96715323,0.000313,69.9984,86.5248,269.6336,90.4464,3.3594e-05,2.93e-06,0.0,0 STARLINK-5849,1 55924U 23037L   23243.78050466  .00000293  00000-0  33594-4 0  9992,2 55924  69.9984  86.5248 0003130 269.6336  90.4464 14.96715323 26036,6955.191,96.211,579.233,574.879,0.0
55924.0,STARLINK-5849,PAYLOAD,2023-09-01 01:08:52,14.96719447,0.0003164,69.9977,85.8534,270.5606,89.5189,8.7946e-06,9e-08,0.0,0 STARLINK-5849,1 55924U 23037L   23244.04783026  .00000009  00000-0  87946-5 0  9993,2 55924  69.9977  85.8534 0003164 270.5606  89.5189 14.96719447 26412,6955.178,96.21,579.243,574.842,0.0
55924.0,STARLINK-5849,PAYLOAD,2023-09-01 20:23:44,14.96712223,0.0003299,69.995,83.8365,268.669,91.409,-3.2705e-05,-4.66e-06,0.0,0 STARLINK-5849,1 55924U 23037L   23244.84981899 -.00000466  00000-0 -32705-4 0  9990,2 55924  69.9950  83.8365 0003299 268.6690  91.4090 14.96712223 26534,6955.2,96.211,579.36,574.771,0.0
55924.0,STARLINK-5849,PAYLOAD,2023-09-02 06:01:09,14.96714727,0.0003002,69.9968,82.8273,269.1075,90.974,-2.2556e-05,-3.5e-06,0.0,0 STARLINK-5849,1 55924U 23037L   23245.25080923 -.00000350  00000-0 -22556-4 0  9999,2 55924  69.9968  82.8273 0003002 269.1075  90.9740 14.96714727 26251,6955.192,96.211,579.145,574.97,0.0
55924.0,STARLINK-5849,PAYLOAD,2023-09-02 17:14:49,14.96723552,0.0003106,69.9991,81.6496,273.4225,86.6578,4.4572e-05,4.19e-06,0.0,0 STARLINK-5849,1 55924U 23037L   23245.71862473  .00000419  00000-0  44572-4 0  9994,2 55924  69.9991  81.6496 0003106 273.4225  86.6578 14.96723552 26663,6955.165,96.21,579.19,574.87,0.0
55924.0,STARLINK-5849,PAYLOAD,2023-09-02 18:51:02,14.96739519,0.0003308,69.9992,81.4816,269.0017,91.0762,0.00022954,2.538e-05,0.0,0 STARLINK-5849,1 55924U 23037L   23245.78544096  .00002538  00000-0  22954-3 0  9992,2 55924  69.9992  81.4816 0003308 269.0017  91.0762 14.96739519 26331,6955.116,96.209,579.281,574.68,0.0
55924.0,STARLINK-5849,PAYLOAD,2023-09-03 06:04:43,14.96715099,0.0002784,69.9992,80.3042,275.7723,84.3118,-6.0681e-05,-7.86e-06,0.0,0 STARLINK-5849,1 55924U 23037L   23246.25328676 -.00000786  00000-0 -60681-4 0  9994,2 55924  69.9992  80.3042 0002784 275.7723  84.3118 14.96715099 26747,6955.191,96.211,578.993,575.12,0.0
55924.0,STARLINK-5849,PAYLOAD,2023-09-04 06:08:18,14.96709356,0.0002965,69.9996,77.7849,268.719,91.3629,-3.4493e-05,-4.86e-06,0.0,0 STARLINK-5849,1 55924U 23037L   23247.25577118 -.00000486  00000-0 -34493-4 0  9991,2 55924  69.9996  77.7849 0002965 268.7190  91.3629 14.96709356 26897,6955.209,96.211,579.136,575.012,0.0
55924.0,STARLINK-5849,PAYLOAD,2023-09-05 12:36:49,14.96712205,0.0003079,69.9997,74.591,267.5656,92.5149,4.9064e-05,4.7e-06,0.0,0 STARLINK-5849,1 55924U 23037L   23248.52557590  .00000470  00000-0  49064-4 0  9995,2 55924  69.9997  74.5910 0003079 267.5656  92.5149 14.96712205 27082,6955.2,96.211,579.207,574.924,0.0
55924.0,STARLINK-5849,PAYLOAD,2023-09-06 06:15:26,14.9671776,0.000267,69.9992,72.7441,257.3404,102.7455,0.00012681,1.36e-05,0.0,0 STARLINK-5849,1 55924U 23037L   23249.26072257  .00001360  00000-0  12681-3 0  9992,2 55924  69.9992  72.7441 0002670 257.3404 102.7455 14.96717760 27197,6955.183,96.211,578.905,575.191,0.0
55924.0,STARLINK-5849,PAYLOAD,2023-09-06 11:04:04,14.96762284,0.0005728,69.9999,72.237,261.9255,98.1253,0.00057401,6.494e-05,0.0,0 STARLINK-5849,1 55924U 23037L   23249.46116531  .00006494  00000-0  57401-3 0  9990,2 55924  69.9999  72.2370 0005728 261.9255  98.1253 14.96762284 26882,6955.045,96.208,580.894,572.926,0.0
55924.0,STARLINK-5849,PAYLOAD,2023-09-06 20:41:03,14.97061085,0.0002917,69.9998,71.2276,268.4699,91.6126,0.0037354,0.00043312,0.0,0 STARLINK-5849,1 55924U 23037L   23249.86184655  .00043312  00000-0  37354-2 0  9990,2 55924  69.9998  71.2276 0002917 268.4699  91.6126 14.97061085 26942,6954.12,96.188,578.013,573.956,0.0
55924.0,STARLINK-5849,PAYLOAD,2023-09-07 19:07:26,14.97429195,0.0005471,69.9997,68.872,286.7156,73.3402,0.0062563,0.00073627,0.0,0 STARLINK-5849,1 55924U 23037L   23250.79683493  .00073627  00000-0  62563-2 0  9990,2 55924  69.9997  68.8720 0005471 286.7156  73.3402 14.97429195 27424,6952.98,96.165,578.649,571.041,0.0
55924.0,STARLINK-5849,PAYLOAD,2023-09-07 20:43:21,14.9767054,0.0002381,69.9989,68.701,274.3092,85.7795,0.008315,0.00098833,0.0,0 STARLINK-5849,1 55924U 23037L   23250.86344740  .00098833  00000-0  83150-2 0  9998,2 55924  69.9989  68.7010 0002381 274.3092  85.7795 14.97670540 27092,6952.233,96.149,575.753,572.443,0.0
55924.0,STARLINK-5849,PAYLOAD,2023-09-08 06:00:02,14.98315977,0.000305,70.0013,67.7308,262.7436,20.3319,0.0010852,0.00012875,0.0,0 STARLINK-5849,1 55924U 23037L   23251.25002315  .00012875  00000-0  10852-2 0  9992,2 55924  70.0013  67.7308 0003050 262.7436  20.3319 14.98315977 27491,6950.236,96.108,574.221,569.981,0.0
55924.0,STARLINK-5849,PAYLOAD,2023-09-08 14:00:01,14.98371034,0.0003159,70.0015,66.8903,261.5965,18.8849,-0.0031575,-0.00037607,0.0,0 STARLINK-5849,1 55924U 23037L   23251.58334491 -.00037607  00000-0 -31575-2 0  9998,2 55924  70.0015  66.8903 0003159 261.5965  18.8849 14.98371034  5737,6950.066,96.104,574.127,569.735,0.0
55924.0,STARLINK-5849,PAYLOAD,2023-09-08 22:00:00,14.98327589,0.0003102,70.0013,66.0497,269.111,8.8932,0.00021132,2.429e-05,0.0,0 STARLINK-5849,1 55924U 23037L   23251.91667824  .00002429  00000-0  21132-3 0  9995,2 55924  70.0013  66.0497 0003102 269.1110   8.8932 14.98327589  5782,6950.2,96.107,574.221,569.909,0.0
55924.0,STARLINK-5849,PAYLOAD,2023-09-09 14:00:01,14.98349232,0.0003148,70.0013,64.3687,263.6672,9.2806,-0.0025663,-0.00030596,0.0,0 STARLINK-5849,1 55924U 23037L   23252.58334491 -.00030596  00000-0 -25663-2 0  9990,2 55924  70.0013  64.3687 0003148 263.6672   9.2806 14.98349232 27694,6950.133,96.106,574.186,569.811,0.0
55924.0,STARLINK-5849,PAYLOAD,2023-09-10 06:00:00,14.98308452,0.0003136,70.001,62.6876,265.1888,2.7418,0.0025521,0.00030474,0.0,0 STARLINK-5849,1 55924U 23037L   23253.25001157  .00030474  00000-0  25521-2 0  9991,2 55924  70.0010  62.6876 0003136 265.1888   2.7418 14.98308452 27792,6950.26,96.108,574.304,569.945,0.0
55924.0,STARLINK-5849,PAYLOAD,2023-09-10 14:00:01,14.98355962,0.000319,70.0012,61.8471,264.1444,1.2474,-0.002919,-0.00034774,0.0,0 STARLINK-5849,1 55924U 23037L   23253.58334491 -.00034774  00000-0 -29190-2 0  9992,2 55924  70.0012  61.8471 0003190 264.1444   1.2474 14.98355962  5636,6950.113,96.105,574.195,569.761,0.0
55924.0,STARLINK-5849,PAYLOAD,2023-09-10 22:00:00,14.98318505,0.0003194,70.001,61.0065,270.5467,352.3491,0.0018033,0.00021484,0.0,0 STARLINK-5849,1 55924U 23037L   23253.91667824  .00021484  00000-0  18033-2 0  9994,2 55924  70.0010  61.0065 0003194 270.5467 352.3491 14.98318505 27898,6950.228,96.108,574.313,569.874,0.0
55924.0,STARLINK-5849,PAYLOAD,2023-09-11 14:27:18,14.98327094,0.0003151,70.0002,59.2781,266.1795,93.9004,3.8596e-05,3.67e-06,0.0,0 STARLINK-5849,1 55924U 23037L   23254.60230169  .00000367  00000-0  38596-4 0  9994,2 55924  70.0002  59.2781 0003151 266.1795  93.9004 14.98327094 27656,6950.202,96.107,574.257,569.877,0.0
55924.0,STARLINK-5849,PAYLOAD,2023-09-11 17:39:34,14.98329595,0.0003152,70.0004,58.9418,266.7582,93.3217,2.8497e-05,2.47e-06,0.0,0 STARLINK-5849,1 55924U 23037L   23254.73582061  .00000247  00000-0  28497-4 0  9995,2 55924  70.0004  58.9418 0003152 266.7582  93.3217 14.98329595 28011,6950.194,96.107,574.25,569.868,0.0
55924.0,STARLINK-5849,PAYLOAD,2023-09-12 14:29:19,14.98329365,0.0003105,70.0005,56.7532,266.9867,93.0937,-2.3867e-06,-1.21e-06,0.0,0 STARLINK-5849,1 55924U 23037L   23255.60370135 -.00000121  00000-0 -23867-5 0  9999,2 55924  70.0005  56.7532 0003105 266.9867  93.0937 14.98329365 27808,6950.195,96.107,574.218,569.902,0.0
55924.0,STARLINK-5849,PAYLOAD,2023-09-12 17:41:35,14.98330971,0.0003125,70.0005,56.4166,267.3026,92.7776,2.0457e-06,-6.9e-07,0.0,0 STARLINK-5849,1 55924U 23037L   23255.73722021 -.00000069  00000-0  20457-5 0  9990,2 55924  70.0005  56.4166 0003125 267.3026  92.7776 14.98330971 28164,6950.19,96.107,574.227,569.883,0.0
55924.0,STARLINK-5849,PAYLOAD,2023-09-12 20:53:51,14.98333549,0.0003118,70.0006,56.08,267.3709,92.7093,2.9855e-05,2.63e-06,0.0,0 STARLINK-5849,1 55924U 23037L   23255.87073761  .00000263  00000-0  29855-4 0  9990,2 55924  70.0006  56.0800 0003118 267.3709  92.7093 14.98333549 27846,6950.182,96.107,574.214,569.88,0.0
